{"type":"FeatureCollection","features":[{"type":"Feature","properties":{"_gpxType":"rte","name":"suuntoapp-Triathlon-2025-03-21T13-41-12Z"},"geometry":{"type":"LineString","coordinates":[[11.29364,42.598633],[11.293745,42.598648],[11.293993,42.598652],[11.293895,42.598827],[11.29377,42.598992],[11.293573,42.599105],[11.293398,42.599235],[11.293302,42.599412],[11.293225,42.59959],[11.293167,42.599772],[11.29312,42.599948],[11.293063,42.600133],[11.292852,42.600235],[11.29265,42.600348],[11.292447,42.600457],[11.292467,42.600637],[11.292697,42.600722],[11.29288,42.600847],[11.292993,42.60101],[11.293125,42.601163],[11.293202,42.601342],[11.293227,42.601525],[11.293465,42.60157],[11.293682,42.601485],[11.293917,42.601418],[11.294113,42.601532],[11.294088,42.601713],[11.294065,42.601898],[11.294308,42.601945],[11.29456,42.601975],[11.29481,42.601973],[11.295035,42.601887],[11.295195,42.60175],[11.295363,42.60161],[11.295553,42.60148],[11.295728,42.601347],[11.295892,42.601215],[11.296085,42.601097],[11.296265,42.600965],[11.296435,42.600823],[11.29664,42.60072],[11.296877,42.600642],[11.297108,42.60057],[11.297298,42.600453],[11.29752,42.600363],[11.29774,42.600275],[11.297982,42.600218],[11.298178,42.600103],[11.298377,42.599988],[11.298575,42.599875],[11.298758,42.59975],[11.298982,42.599653],[11.299182,42.599545],[11.2994,42.599457],[11.299608,42.599352],[11.299838,42.599272],[11.300032,42.59916],[11.30023,42.59904],[11.300418,42.59891],[11.300602,42.598785],[11.30078,42.598655],[11.300938,42.598517],[11.301008,42.598338],[11.301068,42.598163],[11.301092,42.597985],[11.301095,42.597795],[11.30113,42.597613],[11.301235,42.597445],[11.301295,42.597262],[11.301397,42.597097],[11.301633,42.597045],[11.301875,42.59709],[11.302122,42.597137],[11.30238,42.59714],[11.302615,42.597075],[11.302822,42.596978],[11.303055,42.596913],[11.303237,42.596792],[11.303377,42.596632],[11.303535,42.596493],[11.30378,42.59645],[11.304023,42.5964],[11.304262,42.596337],[11.304438,42.596208],[11.304602,42.596067],[11.30467,42.595888],[11.304682,42.595702],[11.304715,42.59552],[11.304747,42.595338],[11.304767,42.595152],[11.304802,42.594975],[11.304937,42.594822],[11.305183,42.594805],[11.30543,42.594817],[11.305673,42.594847],[11.305922,42.594862],[11.306178,42.59488],[11.306425,42.594867],[11.306668,42.59484],[11.306913,42.594808],[11.307157,42.594792],[11.30741,42.594832],[11.307643,42.594913],[11.307868,42.594993],[11.30809,42.595077],[11.308332,42.595118],[11.308573,42.595152],[11.308813,42.595183],[11.309068,42.595187],[11.30932,42.59521],[11.309568,42.595202],[11.30982,42.595175],[11.310065,42.595165],[11.31032,42.595163],[11.31057,42.595168],[11.310822,42.595168],[11.311077,42.595165],[11.311327,42.595175],[11.31158,42.595172],[11.311832,42.595172],[11.312082,42.595165],[11.31233,42.59516],[11.312577,42.595165],[11.312823,42.595162],[11.31307,42.595152],[11.313315,42.59515],[11.313567,42.595163],[11.313815,42.595173],[11.314013,42.595068],[11.313985,42.594883],[11.31395,42.594703],[11.313928,42.594518],[11.313925,42.594338],[11.313905,42.594153],[11.313862,42.59397],[11.313823,42.593783],[11.313778,42.593598],[11.313708,42.593415],[11.313615,42.593248],[11.313538,42.593065],[11.31345,42.59289],[11.313363,42.592717],[11.313257,42.59255],[11.313125,42.592398],[11.312965,42.592253],[11.312792,42.592117],[11.312623,42.591982],[11.312443,42.59186],[11.312247,42.591967],[11.312113,42.592122],[11.311973,42.592278],[11.311842,42.592432],[11.311705,42.592587],[11.311563,42.592743],[11.311428,42.592902],[11.311302,42.593063],[11.311293,42.593245],[11.31107,42.593322],[11.311242,42.593183],[11.311355,42.593017],[11.3115,42.592867],[11.311642,42.592717],[11.311805,42.592575],[11.311945,42.592425],[11.312088,42.592277],[11.312222,42.592125],[11.312337,42.591963],[11.312317,42.591783],[11.312145,42.591647],[11.312037,42.591477],[11.31188,42.59133],[11.311645,42.591257],[11.311473,42.591123],[11.311362,42.590955],[11.311247,42.590788],[11.311113,42.59063],[11.310988,42.590477],[11.310855,42.590313],[11.310713,42.590158],[11.310587,42.589992],[11.310473,42.589832],[11.310385,42.589662],[11.310298,42.589485],[11.3102,42.58932],[11.310033,42.589178],[11.309942,42.589008],[11.309873,42.588835],[11.309782,42.588668],[11.30964,42.588518],[11.309445,42.588627],[11.309233,42.588723],[11.309018,42.588822],[11.308795,42.588902],[11.308585,42.588993],[11.308365,42.589083],[11.308152,42.589175],[11.30793,42.589265],[11.307708,42.589365],[11.307485,42.589447],[11.307263,42.589535],[11.30706,42.589642],[11.306863,42.589758],[11.306658,42.589873],[11.306463,42.589987],[11.306262,42.590093],[11.30606,42.590205],[11.305863,42.590315],[11.305657,42.590417],[11.30546,42.590533],[11.305255,42.590642],[11.305048,42.590755],[11.304852,42.590867],[11.304657,42.59098],[11.30445,42.591092],[11.304255,42.591208],[11.30405,42.591318],[11.303815,42.591387],[11.30365,42.59125],[11.303497,42.5911],[11.30335,42.59095],[11.3032,42.590808],[11.303042,42.590662],[11.302892,42.59052],[11.302745,42.590367],[11.302598,42.59022],[11.302443,42.590072],[11.302293,42.589923],[11.302155,42.589768],[11.301977,42.58964],[11.30189,42.589472],[11.301862,42.589285],[11.30182,42.5891],[11.301777,42.588913],[11.301727,42.588732],[11.301732,42.58855],[11.301602,42.58839],[11.301535,42.588213],[11.301718,42.588095],[11.301547,42.588232],[11.301655,42.588398],[11.301767,42.58856],[11.301797,42.588743],[11.301838,42.588927],[11.301877,42.589108],[11.301907,42.589293],[11.301927,42.58948],[11.301995,42.589655],[11.301833,42.589803],[11.301617,42.589898],[11.301395,42.589982],[11.301162,42.590042],[11.300925,42.590092],[11.3007,42.590177],[11.300472,42.59026],[11.300255,42.590347],[11.300028,42.590425],[11.299798,42.590492],[11.299583,42.59058],[11.299363,42.590658],[11.29914,42.590743],[11.298927,42.590832],[11.298698,42.590917],[11.298473,42.590995],[11.298257,42.591088],[11.298035,42.591177],[11.2978,42.591248],[11.297555,42.591278],[11.297332,42.591187],[11.297157,42.591048],[11.296962,42.590927],[11.296842,42.591085],[11.297002,42.591225],[11.296925,42.591402],[11.296742,42.591523],[11.296582,42.591668],[11.29645,42.591822],[11.296315,42.591973],[11.29615,42.592107],[11.296207,42.592282],[11.296408,42.592387],[11.29662,42.592478],[11.296827,42.592582],[11.297035,42.592682],[11.297242,42.592788],[11.297438,42.592908],[11.297592,42.59305],[11.297683,42.593225],[11.297757,42.593398],[11.297823,42.593573],[11.297865,42.593758],[11.297915,42.593935],[11.297927,42.594122],[11.29784,42.59429],[11.297622,42.594377],[11.297395,42.594302],[11.29727,42.594143],[11.297162,42.593977],[11.297013,42.59382],[11.296808,42.593703],[11.296565,42.593673],[11.296325,42.593718],[11.296108,42.593805],[11.29587,42.593873],[11.295647,42.593953],[11.295417,42.594015],[11.295185,42.594093],[11.294957,42.594163],[11.294725,42.594242],[11.294507,42.59433],[11.294277,42.594395],[11.29405,42.594483],[11.293825,42.594557],[11.293623,42.594658],[11.293387,42.59473],[11.293153,42.594802],[11.292918,42.594872],[11.29273,42.595],[11.292653,42.595175],[11.292563,42.595343],[11.292495,42.595517],[11.29241,42.595688],[11.292285,42.595847],[11.292193,42.596018],[11.29214,42.5962],[11.292115,42.596383],[11.292345,42.596455],[11.292467,42.596615],[11.292618,42.596757],[11.29277,42.596907],[11.292922,42.597052],[11.293042,42.597218],[11.293152,42.597383],[11.29324,42.597558],[11.293303,42.597737],[11.293363,42.597918],[11.293427,42.598102],[11.293503,42.598278],[11.293487,42.598395]]}}]}