<?xml version="1.0" encoding="UTF-8" standalone="no"?><gpx xmlns="http://www.topografix.com/GPX/1/1" xmlns:gpxtpx="http://www.garmin.com/xmlschemas/TrackPointExtension/v1" xmlns:xsi="http://www.w3.org/2001/XMLSchema-instance" creator="Suunto app" version="1.1" xsi:schemaLocation="http://www.topografix.com/GPX/1/1 http://www.topografix.com/GPX/1/1/gpx.xsd http://www.garmin.com/xmlschemas/TrackPointExtension/v1 http://www.garmin.com/xmlschemas/TrackPointExtensionv1.xsd"><metadata><name>suuntoapp-Triathlon-2025-03-21T13-41-12Z</name><desc/><author><name>bertelli alessandro</name></author></metadata><rte><name>suuntoapp-Triathlon-2025-03-21T13-41-12Z</name><rtept lat="42.598633" lon="11.29364"/><rtept lat="42.598648" lon="11.293745"/><rtept lat="42.598652" lon="11.293993"/><rtept lat="42.598827" lon="11.293895"/><rtept lat="42.598992" lon="11.29377"/><rtept lat="42.599105" lon="11.293573"/><rtept lat="42.599235" lon="11.293398"/><rtept lat="42.599412" lon="11.293302"/><rtept lat="42.59959" lon="11.293225"/><rtept lat="42.599772" lon="11.293167"/><rtept lat="42.599948" lon="11.29312"/><rtept lat="42.600133" lon="11.293063"/><rtept lat="42.600235" lon="11.292852"/><rtept lat="42.600348" lon="11.29265"/><rtept lat="42.600457" lon="11.292447"/><rtept lat="42.600637" lon="11.292467"/><rtept lat="42.600722" lon="11.292697"/><rtept lat="42.600847" lon="11.29288"/><rtept lat="42.60101" lon="11.292993"/><rtept lat="42.601163" lon="11.293125"/><rtept lat="42.601342" lon="11.293202"/><rtept lat="42.601525" lon="11.293227"/><rtept lat="42.60157" lon="11.293465"/><rtept lat="42.601485" lon="11.293682"/><rtept lat="42.601418" lon="11.293917"/><rtept lat="42.601532" lon="11.294113"/><rtept lat="42.601713" lon="11.294088"/><rtept lat="42.601898" lon="11.294065"/><rtept lat="42.601945" lon="11.294308"/><rtept lat="42.601975" lon="11.29456"/><rtept lat="42.601973" lon="11.29481"/><rtept lat="42.601887" lon="11.295035"/><rtept lat="42.60175" lon="11.295195"/><rtept lat="42.60161" lon="11.295363"/><rtept lat="42.60148" lon="11.295553"/><rtept lat="42.601347" lon="11.295728"/><rtept lat="42.601215" lon="11.295892"/><rtept lat="42.601097" lon="11.296085"/><rtept lat="42.600965" lon="11.296265"/><rtept lat="42.600823" lon="11.296435"/><rtept lat="42.60072" lon="11.29664"/><rtept lat="42.600642" lon="11.296877"/><rtept lat="42.60057" lon="11.297108"/><rtept lat="42.600453" lon="11.297298"/><rtept lat="42.600363" lon="11.29752"/><rtept lat="42.600275" lon="11.29774"/><rtept lat="42.600218" lon="11.297982"/><rtept lat="42.600103" lon="11.298178"/><rtept lat="42.599988" lon="11.298377"/><rtept lat="42.599875" lon="11.298575"/><rtept lat="42.59975" lon="11.298758"/><rtept lat="42.599653" lon="11.298982"/><rtept lat="42.599545" lon="11.299182"/><rtept lat="42.599457" lon="11.2994"/><rtept lat="42.599352" lon="11.299608"/><rtept lat="42.599272" lon="11.299838"/><rtept lat="42.59916" lon="11.300032"/><rtept lat="42.59904" lon="11.30023"/><rtept lat="42.59891" lon="11.300418"/><rtept lat="42.598785" lon="11.300602"/><rtept lat="42.598655" lon="11.30078"/><rtept lat="42.598517" lon="11.300938"/><rtept lat="42.598338" lon="11.301008"/><rtept lat="42.598163" lon="11.301068"/><rtept lat="42.597985" lon="11.301092"/><rtept lat="42.597795" lon="11.301095"/><rtept lat="42.597613" lon="11.30113"/><rtept lat="42.597445" lon="11.301235"/><rtept lat="42.597262" lon="11.301295"/><rtept lat="42.597097" lon="11.301397"/><rtept lat="42.597045" lon="11.301633"/><rtept lat="42.59709" lon="11.301875"/><rtept lat="42.597137" lon="11.302122"/><rtept lat="42.59714" lon="11.30238"/><rtept lat="42.597075" lon="11.302615"/><rtept lat="42.596978" lon="11.302822"/><rtept lat="42.596913" lon="11.303055"/><rtept lat="42.596792" lon="11.303237"/><rtept lat="42.596632" lon="11.303377"/><rtept lat="42.596493" lon="11.303535"/><rtept lat="42.59645" lon="11.30378"/><rtept lat="42.5964" lon="11.304023"/><rtept lat="42.596337" lon="11.304262"/><rtept lat="42.596208" lon="11.304438"/><rtept lat="42.596067" lon="11.304602"/><rtept lat="42.595888" lon="11.30467"/><rtept lat="42.595702" lon="11.304682"/><rtept lat="42.59552" lon="11.304715"/><rtept lat="42.595338" lon="11.304747"/><rtept lat="42.595152" lon="11.304767"/><rtept lat="42.594975" lon="11.304802"/><rtept lat="42.594822" lon="11.304937"/><rtept lat="42.594805" lon="11.305183"/><rtept lat="42.594817" lon="11.30543"/><rtept lat="42.594847" lon="11.305673"/><rtept lat="42.594862" lon="11.305922"/><rtept lat="42.59488" lon="11.306178"/><rtept lat="42.594867" lon="11.306425"/><rtept lat="42.59484" lon="11.306668"/><rtept lat="42.594808" lon="11.306913"/><rtept lat="42.594792" lon="11.307157"/><rtept lat="42.594832" lon="11.30741"/><rtept lat="42.594913" lon="11.307643"/><rtept lat="42.594993" lon="11.307868"/><rtept lat="42.595077" lon="11.30809"/><rtept lat="42.595118" lon="11.308332"/><rtept lat="42.595152" lon="11.308573"/><rtept lat="42.595183" lon="11.308813"/><rtept lat="42.595187" lon="11.309068"/><rtept lat="42.59521" lon="11.30932"/><rtept lat="42.595202" lon="11.309568"/><rtept lat="42.595175" lon="11.30982"/><rtept lat="42.595165" lon="11.310065"/><rtept lat="42.595163" lon="11.31032"/><rtept lat="42.595168" lon="11.31057"/><rtept lat="42.595168" lon="11.310822"/><rtept lat="42.595165" lon="11.311077"/><rtept lat="42.595175" lon="11.311327"/><rtept lat="42.595172" lon="11.31158"/><rtept lat="42.595172" lon="11.311832"/><rtept lat="42.595165" lon="11.312082"/><rtept lat="42.59516" lon="11.31233"/><rtept lat="42.595165" lon="11.312577"/><rtept lat="42.595162" lon="11.312823"/><rtept lat="42.595152" lon="11.31307"/><rtept lat="42.59515" lon="11.313315"/><rtept lat="42.595163" lon="11.313567"/><rtept lat="42.595173" lon="11.313815"/><rtept lat="42.595068" lon="11.314013"/><rtept lat="42.594883" lon="11.313985"/><rtept lat="42.594703" lon="11.31395"/><rtept lat="42.594518" lon="11.313928"/><rtept lat="42.594338" lon="11.313925"/><rtept lat="42.594153" lon="11.313905"/><rtept lat="42.59397" lon="11.313862"/><rtept lat="42.593783" lon="11.313823"/><rtept lat="42.593598" lon="11.313778"/><rtept lat="42.593415" lon="11.313708"/><rtept lat="42.593248" lon="11.313615"/><rtept lat="42.593065" lon="11.313538"/><rtept lat="42.59289" lon="11.31345"/><rtept lat="42.592717" lon="11.313363"/><rtept lat="42.59255" lon="11.313257"/><rtept lat="42.592398" lon="11.313125"/><rtept lat="42.592253" lon="11.312965"/><rtept lat="42.592117" lon="11.312792"/><rtept lat="42.591982" lon="11.312623"/><rtept lat="42.59186" lon="11.312443"/><rtept lat="42.591967" lon="11.312247"/><rtept lat="42.592122" lon="11.312113"/><rtept lat="42.592278" lon="11.311973"/><rtept lat="42.592432" lon="11.311842"/><rtept lat="42.592587" lon="11.311705"/><rtept lat="42.592743" lon="11.311563"/><rtept lat="42.592902" lon="11.311428"/><rtept lat="42.593063" lon="11.311302"/><rtept lat="42.593245" lon="11.311293"/><rtept lat="42.593322" lon="11.31107"/><rtept lat="42.593183" lon="11.311242"/><rtept lat="42.593017" lon="11.311355"/><rtept lat="42.592867" lon="11.3115"/><rtept lat="42.592717" lon="11.311642"/><rtept lat="42.592575" lon="11.311805"/><rtept lat="42.592425" lon="11.311945"/><rtept lat="42.592277" lon="11.312088"/><rtept lat="42.592125" lon="11.312222"/><rtept lat="42.591963" lon="11.312337"/><rtept lat="42.591783" lon="11.312317"/><rtept lat="42.591647" lon="11.312145"/><rtept lat="42.591477" lon="11.312037"/><rtept lat="42.59133" lon="11.31188"/><rtept lat="42.591257" lon="11.311645"/><rtept lat="42.591123" lon="11.311473"/><rtept lat="42.590955" lon="11.311362"/><rtept lat="42.590788" lon="11.311247"/><rtept lat="42.59063" lon="11.311113"/><rtept lat="42.590477" lon="11.310988"/><rtept lat="42.590313" lon="11.310855"/><rtept lat="42.590158" lon="11.310713"/><rtept lat="42.589992" lon="11.310587"/><rtept lat="42.589832" lon="11.310473"/><rtept lat="42.589662" lon="11.310385"/><rtept lat="42.589485" lon="11.310298"/><rtept lat="42.58932" lon="11.3102"/><rtept lat="42.589178" lon="11.310033"/><rtept lat="42.589008" lon="11.309942"/><rtept lat="42.588835" lon="11.309873"/><rtept lat="42.588668" lon="11.309782"/><rtept lat="42.588518" lon="11.30964"/><rtept lat="42.588627" lon="11.309445"/><rtept lat="42.588723" lon="11.309233"/><rtept lat="42.588822" lon="11.309018"/><rtept lat="42.588902" lon="11.308795"/><rtept lat="42.588993" lon="11.308585"/><rtept lat="42.589083" lon="11.308365"/><rtept lat="42.589175" lon="11.308152"/><rtept lat="42.589265" lon="11.30793"/><rtept lat="42.589365" lon="11.307708"/><rtept lat="42.589447" lon="11.307485"/><rtept lat="42.589535" lon="11.307263"/><rtept lat="42.589642" lon="11.30706"/><rtept lat="42.589758" lon="11.306863"/><rtept lat="42.589873" lon="11.306658"/><rtept lat="42.589987" lon="11.306463"/><rtept lat="42.590093" lon="11.306262"/><rtept lat="42.590205" lon="11.30606"/><rtept lat="42.590315" lon="11.305863"/><rtept lat="42.590417" lon="11.305657"/><rtept lat="42.590533" lon="11.30546"/><rtept lat="42.590642" lon="11.305255"/><rtept lat="42.590755" lon="11.305048"/><rtept lat="42.590867" lon="11.304852"/><rtept lat="42.59098" lon="11.304657"/><rtept lat="42.591092" lon="11.30445"/><rtept lat="42.591208" lon="11.304255"/><rtept lat="42.591318" lon="11.30405"/><rtept lat="42.591387" lon="11.303815"/><rtept lat="42.59125" lon="11.30365"/><rtept lat="42.5911" lon="11.303497"/><rtept lat="42.59095" lon="11.30335"/><rtept lat="42.590808" lon="11.3032"/><rtept lat="42.590662" lon="11.303042"/><rtept lat="42.59052" lon="11.302892"/><rtept lat="42.590367" lon="11.302745"/><rtept lat="42.59022" lon="11.302598"/><rtept lat="42.590072" lon="11.302443"/><rtept lat="42.589923" lon="11.302293"/><rtept lat="42.589768" lon="11.302155"/><rtept lat="42.58964" lon="11.301977"/><rtept lat="42.589472" lon="11.30189"/><rtept lat="42.589285" lon="11.301862"/><rtept lat="42.5891" lon="11.30182"/><rtept lat="42.588913" lon="11.301777"/><rtept lat="42.588732" lon="11.301727"/><rtept lat="42.58855" lon="11.301732"/><rtept lat="42.58839" lon="11.301602"/><rtept lat="42.588213" lon="11.301535"/><rtept lat="42.588095" lon="11.301718"/><rtept lat="42.588232" lon="11.301547"/><rtept lat="42.588398" lon="11.301655"/><rtept lat="42.58856" lon="11.301767"/><rtept lat="42.588743" lon="11.301797"/><rtept lat="42.588927" lon="11.301838"/><rtept lat="42.589108" lon="11.301877"/><rtept lat="42.589293" lon="11.301907"/><rtept lat="42.58948" lon="11.301927"/><rtept lat="42.589655" lon="11.301995"/><rtept lat="42.589803" lon="11.301833"/><rtept lat="42.589898" lon="11.301617"/><rtept lat="42.589982" lon="11.301395"/><rtept lat="42.590042" lon="11.301162"/><rtept lat="42.590092" lon="11.300925"/><rtept lat="42.590177" lon="11.3007"/><rtept lat="42.59026" lon="11.300472"/><rtept lat="42.590347" lon="11.300255"/><rtept lat="42.590425" lon="11.300028"/><rtept lat="42.590492" lon="11.299798"/><rtept lat="42.59058" lon="11.299583"/><rtept lat="42.590658" lon="11.299363"/><rtept lat="42.590743" lon="11.29914"/><rtept lat="42.590832" lon="11.298927"/><rtept lat="42.590917" lon="11.298698"/><rtept lat="42.590995" lon="11.298473"/><rtept lat="42.591088" lon="11.298257"/><rtept lat="42.591177" lon="11.298035"/><rtept lat="42.591248" lon="11.2978"/><rtept lat="42.591278" lon="11.297555"/><rtept lat="42.591187" lon="11.297332"/><rtept lat="42.591048" lon="11.297157"/><rtept lat="42.590927" lon="11.296962"/><rtept lat="42.591085" lon="11.296842"/><rtept lat="42.591225" lon="11.297002"/><rtept lat="42.591402" lon="11.296925"/><rtept lat="42.591523" lon="11.296742"/><rtept lat="42.591668" lon="11.296582"/><rtept lat="42.591822" lon="11.29645"/><rtept lat="42.591973" lon="11.296315"/><rtept lat="42.592107" lon="11.29615"/><rtept lat="42.592282" lon="11.296207"/><rtept lat="42.592387" lon="11.296408"/><rtept lat="42.592478" lon="11.29662"/><rtept lat="42.592582" lon="11.296827"/><rtept lat="42.592682" lon="11.297035"/><rtept lat="42.592788" lon="11.297242"/><rtept lat="42.592908" lon="11.297438"/><rtept lat="42.59305" lon="11.297592"/><rtept lat="42.593225" lon="11.297683"/><rtept lat="42.593398" lon="11.297757"/><rtept lat="42.593573" lon="11.297823"/><rtept lat="42.593758" lon="11.297865"/><rtept lat="42.593935" lon="11.297915"/><rtept lat="42.594122" lon="11.297927"/><rtept lat="42.59429" lon="11.29784"/><rtept lat="42.594377" lon="11.297622"/><rtept lat="42.594302" lon="11.297395"/><rtept lat="42.594143" lon="11.29727"/><rtept lat="42.593977" lon="11.297162"/><rtept lat="42.59382" lon="11.297013"/><rtept lat="42.593703" lon="11.296808"/><rtept lat="42.593673" lon="11.296565"/><rtept lat="42.593718" lon="11.296325"/><rtept lat="42.593805" lon="11.296108"/><rtept lat="42.593873" lon="11.29587"/><rtept lat="42.593953" lon="11.295647"/><rtept lat="42.594015" lon="11.295417"/><rtept lat="42.594093" lon="11.295185"/><rtept lat="42.594163" lon="11.294957"/><rtept lat="42.594242" lon="11.294725"/><rtept lat="42.59433" lon="11.294507"/><rtept lat="42.594395" lon="11.294277"/><rtept lat="42.594483" lon="11.29405"/><rtept lat="42.594557" lon="11.293825"/><rtept lat="42.594658" lon="11.293623"/><rtept lat="42.59473" lon="11.293387"/><rtept lat="42.594802" lon="11.293153"/><rtept lat="42.594872" lon="11.292918"/><rtept lat="42.595" lon="11.29273"/><rtept lat="42.595175" lon="11.292653"/><rtept lat="42.595343" lon="11.292563"/><rtept lat="42.595517" lon="11.292495"/><rtept lat="42.595688" lon="11.29241"/><rtept lat="42.595847" lon="11.292285"/><rtept lat="42.596018" lon="11.292193"/><rtept lat="42.5962" lon="11.29214"/><rtept lat="42.596383" lon="11.292115"/><rtept lat="42.596455" lon="11.292345"/><rtept lat="42.596615" lon="11.292467"/><rtept lat="42.596757" lon="11.292618"/><rtept lat="42.596907" lon="11.29277"/><rtept lat="42.597052" lon="11.292922"/><rtept lat="42.597218" lon="11.293042"/><rtept lat="42.597383" lon="11.293152"/><rtept lat="42.597558" lon="11.29324"/><rtept lat="42.597737" lon="11.293303"/><rtept lat="42.597918" lon="11.293363"/><rtept lat="42.598102" lon="11.293427"/><rtept lat="42.598278" lon="11.293503"/><rtept lat="42.598395" lon="11.293487"/></rte></gpx>