{"type":"FeatureCollection","features":[{"type":"Feature","properties":{"_gpxType":"trk","name":"2025-04-10 16:45","coordinateProperties":{}},"geometry":{"type":"LineString","coordinates":[[11.392834,42.736672,614],[11.392408,42.736661,615.5],[11.392042,42.736867,618.25],[11.391555,42.737274,623],[11.390817,42.737672,627.75],[11.390355,42.737951,629],[11.390062,42.738164,631.25],[11.389892,42.738226,633.25],[11.389821,42.738329,633.25],[11.389668,42.738622,632.75],[11.389534,42.738723,633],[11.389298,42.738829,632.75],[11.389013,42.738944,630.75],[11.388753,42.739148,628.5],[11.388632,42.739339,630.75],[11.388497,42.739843,633.25],[11.388482,42.73998,632.5],[11.388413,42.740646,634],[11.388261,42.740973,636],[11.388293,42.741213,637.25],[11.388332,42.741423,639],[11.388109,42.742078,642],[11.38788,42.742279,641.75],[11.38772,42.742517,638.5],[11.387589,42.742953,631],[11.3873,42.743368,622.75],[11.386757,42.743847,613.75],[11.386722,42.744023,610.75],[11.386848,42.744266,607.75],[11.38709,42.744513,604.25],[11.38737,42.744654,602.5],[11.387676,42.744738,599.5],[11.387892,42.744766,601.75],[11.388007,42.744953,596.75],[11.387994,42.74512,595.25],[11.38779,42.745636,590.25],[11.387408,42.746156,581],[11.386759,42.746581,573],[11.3867,42.74662,572.75],[11.386237,42.746811,569.75],[11.385585,42.747203,559.5],[11.383863,42.747708,546],[11.383619,42.747784,545.5],[11.382727,42.748064,545.5],[11.381841,42.748726,542.75],[11.38176,42.748931,541.75],[11.381816,42.749765,536.25],[11.381683,42.749986,534],[11.381408,42.750117,529.5],[11.380996,42.750285,523.25],[11.380792,42.750457,521.5],[11.38066,42.750656,520.5],[11.380609,42.751067,520],[11.380787,42.751658,516.5],[11.380975,42.752095,512],[11.38095,42.75235,509.75],[11.380456,42.752847,502.5],[11.379468,42.753434,495.5],[11.379088,42.753553,484.5],[11.378245,42.753819,484.5],[11.378269,42.753996,483.75],[11.378161,42.75426,479],[11.37755,42.755588,459.25],[11.377153,42.755875,452],[11.376756,42.756486,441],[11.37638,42.756923,436.5],[11.375855,42.757455,432.5],[11.375544,42.757888,424],[11.375195,42.757979,419.25],[11.374433,42.758384,414.75],[11.373789,42.758743,409.75],[11.373081,42.759066,406.25],[11.372475,42.759144,402],[11.371864,42.759566,395],[11.371365,42.759881,385],[11.371032,42.759932,379.5],[11.370404,42.759999,373.75],[11.369879,42.760098,370.5],[11.369364,42.760346,364.5],[11.36901,42.760637,362],[11.369095,42.761224,357.5],[11.369004,42.761339,355.25],[11.368956,42.761401,355.25],[11.36864,42.761547,352],[11.368087,42.761433,351.25],[11.367073,42.761511,352.25],[11.366462,42.761992,344.75],[11.365877,42.762437,340.25],[11.36548,42.762768,337],[11.365029,42.762914,336.5],[11.364977,42.762958,336],[11.364756,42.76315,336],[11.364375,42.763229,337.25],[11.363983,42.763244,336.5],[11.363672,42.763071,335],[11.363463,42.76252,329.25],[11.363114,42.762559,325.5],[11.362546,42.762717,313.5],[11.362256,42.762791,305.5],[11.362245,42.762953,303.75],[11.362342,42.763343,301.75],[11.362208,42.763646,302.25],[11.362004,42.763835,301.75],[11.361591,42.764036,298.75],[11.361322,42.764079,299],[11.360958,42.7643,295.25],[11.360813,42.764461,291.25],[11.360931,42.764772,281.5],[11.360837,42.764844,278.25],[11.360614,42.765017,278.25],[11.360207,42.765308,270.5],[11.359976,42.765548,269.75],[11.359794,42.765899,261],[11.359617,42.76597,258.5],[11.359279,42.766076,252.75],[11.35923,42.766277,246.75],[11.359375,42.766387,245.25],[11.359386,42.766584,237.75],[11.359563,42.766671,236],[11.359756,42.766832,233.5],[11.359836,42.766985,229.5],[11.359804,42.767183,225.25],[11.359745,42.767324,222.5],[11.359971,42.767553,219],[11.359799,42.767907,211],[11.359177,42.768181,203],[11.358364,42.768427,196.5],[11.357884,42.768521,194.25],[11.357417,42.76852,190],[11.357275,42.768514,184.75],[11.356832,42.768497,184.75],[11.355711,42.769022,171],[11.35529,42.769004,164],[11.354939,42.768951,159.5],[11.354649,42.769058,156.5],[11.354446,42.769269,152.5],[11.35381,42.769448,149.75],[11.35361,42.769614,149.25],[11.353616,42.76982,149],[11.353498,42.770029,149.25],[11.353535,42.77028,150],[11.353546,42.770591,151.25],[11.35338,42.770915,151.75],[11.353339,42.771111,153.25],[11.353292,42.771341,153.25],[11.352873,42.771577,157],[11.351827,42.771546,155.25],[11.351178,42.771562,153.5],[11.350572,42.771751,151],[11.350304,42.772015,153.5],[11.3498,42.772007,150.25],[11.349333,42.772188,151],[11.348839,42.772337,150],[11.348469,42.772652,150.5],[11.348094,42.77303,150.5],[11.347316,42.773617,144.5],[11.347008,42.773922,142.5],[11.346377,42.77455,142.5],[11.34598,42.774972,141.25],[11.345701,42.775424,143.25],[11.345514,42.775944,146.25],[11.345449,42.776574,153.25],[11.345508,42.776897,159],[11.345712,42.777322,164.5],[11.345927,42.777263,166.75],[11.346227,42.777342,172],[11.346484,42.7775,177.25],[11.346678,42.777634,181],[11.34694,42.7777,186],[11.347166,42.777653,189.5],[11.347584,42.77748,196.25],[11.348169,42.777267,204.25],[11.348298,42.777279,206.25],[11.348464,42.77735,209.25],[11.348791,42.777586,217.75],[11.349011,42.777681,222.75],[11.349199,42.777685,226],[11.34944,42.77748,229.5],[11.349676,42.77722,232],[11.349869,42.777082,232.75],[11.349934,42.777039,232.5],[11.350057,42.777019,232.5],[11.350191,42.777023,233],[11.350368,42.777082,234.5],[11.35062,42.777198,242.75],[11.351039,42.777393,242.75],[11.351152,42.777476,246.25],[11.351237,42.777586,249.5],[11.351291,42.777767,253.5],[11.351479,42.777964,256.75],[11.352133,42.778736,269.5],[11.352208,42.778783,270.5],[11.352262,42.778807,271],[11.352342,42.778815,272.25],[11.352471,42.778775,274.75],[11.353276,42.778571,284.75],[11.353315,42.778552,291.75],[11.354129,42.778177,291.75],[11.354638,42.777972,296.75],[11.355003,42.777775,304.75],[11.355073,42.77776,303.25],[11.355255,42.77776,300.5],[11.355336,42.777779,300],[11.35576,42.777937,298.25],[11.355931,42.777968,298],[11.356473,42.777929,296],[11.356838,42.77791,291.25],[11.356473,42.777929,296],[11.356017,42.778815,286.5],[11.355808,42.779094,284.75],[11.355534,42.779433,282.5],[11.355475,42.779594,280],[11.355325,42.780047,272.5],[11.355298,42.780264,269.75],[11.355448,42.780563,262.25],[11.355475,42.780697,259.25],[11.355438,42.78089,256.25],[11.355395,42.781047,254.75],[11.355357,42.781102,254.5],[11.35525,42.781173,254.75],[11.355218,42.781228,253.75],[11.355242,42.781317,253],[11.355271,42.781417,252.25],[11.35525,42.781667,248.25],[11.355266,42.781776,246.25],[11.35533,42.781864,244.5],[11.355405,42.781925,242.75],[11.355532,42.781957,241.75],[11.355714,42.781933,238.75],[11.356001,42.78184,233.75],[11.356631,42.78161,228],[11.356905,42.781632,226.5],[11.35698,42.781667,225.75],[11.357042,42.781728,224.75],[11.357093,42.781823,223.75],[11.357149,42.782002,221.75],[11.35724,42.782163,220.25],[11.357457,42.782469,215.25],[11.357468,42.782486,208],[11.357865,42.783071,208],[11.357932,42.783195,206.5],[11.357948,42.783331,205.25],[11.357932,42.783471,202.75],[11.357854,42.783685,199.75],[11.357734,42.783894,198],[11.357683,42.784047,195.5],[11.357629,42.784341,190.5],[11.357586,42.784417,189],[11.357511,42.784482,187.25],[11.357441,42.784555,185.25],[11.357441,42.784606,184.25],[11.357471,42.784655,183.75],[11.357565,42.784693,183.75],[11.357814,42.78474,183.25],[11.358045,42.784764,181.75],[11.358246,42.784799,178],[11.358351,42.78487,174.25],[11.358369,42.784943,171.75],[11.358334,42.785026,170],[11.358257,42.785092,169],[11.358106,42.785138,169],[11.357988,42.785152,168.75],[11.357766,42.785213,165.5],[11.357455,42.785323,159.25],[11.357286,42.785331,156],[11.357136,42.785333,152.75],[11.356993,42.785307,150],[11.356462,42.785024,147.5],[11.356344,42.785002,144.75],[11.356261,42.785004,143],[11.356052,42.785083,138.5],[11.355985,42.785179,137],[11.355916,42.785348,135.5],[11.355854,42.785441,135.5],[11.355821,42.785713,135.25],[11.355867,42.786051,133.5],[11.355859,42.786168,133.25],[11.355789,42.786399,135.25],[11.356017,42.78639,135],[11.356324,42.786411,135],[11.356422,42.786385,135],[11.356454,42.786384,135],[11.35648,42.786391,135],[11.356507,42.786413,135],[11.356578,42.786498,135.75],[11.356768,42.786648,136.75],[11.356874,42.786692,137],[11.357197,42.786771,137.25],[11.357333,42.78681,137.5],[11.357398,42.786842,138],[11.357514,42.786965,139],[11.357621,42.787018,139.75],[11.35787,42.787045,140],[11.358136,42.787117,140.25],[11.358215,42.787133,140.25],[11.358296,42.787161,140],[11.358423,42.787189,140],[11.358593,42.787187,140],[11.35868,42.787202,140],[11.358766,42.787252,140.5],[11.358835,42.787323,140.75],[11.358988,42.787371,141],[11.359083,42.787389,141.25],[11.359237,42.787348,141.25],[11.35932,42.787348,141.25],[11.359406,42.787363,141.5],[11.359532,42.787418,142],[11.359823,42.787531,143],[11.359945,42.787587,143],[11.35998,42.787616,143],[11.359997,42.787671,143],[11.360044,42.787656,143],[11.360148,42.787657,143],[11.360303,42.787685,143],[11.360437,42.787718,143.75],[11.360547,42.787764,144.75],[11.360652,42.787795,145.5],[11.360706,42.787797,145.5],[11.360789,42.787776,145.75],[11.36084,42.787722,145.5],[11.360872,42.787636,145],[11.360952,42.787484,144.25],[11.361035,42.78739,144],[11.361148,42.787311,143.5],[11.361241,42.787255,142.75],[11.36143,42.787272,142.5],[11.361529,42.787309,143],[11.361677,42.787413,143.5],[11.362017,42.787854,144.75],[11.36211,42.787957,144.5],[11.362139,42.788015,144.25],[11.362141,42.788045,144.25],[11.362104,42.78809,144.5],[11.362104,42.788226,145],[11.362099,42.788291,145.25],[11.362035,42.788529,145.5],[11.362032,42.788587,145.5],[11.362048,42.788633,145.5],[11.362098,42.788701,145.75],[11.36211,42.78879,146],[11.362027,42.788977,147],[11.362027,42.789053,147.25],[11.362043,42.789109,147.25],[11.362183,42.789269,147.75],[11.362241,42.789381,148.25],[11.362328,42.789403,148.25],[11.362482,42.789501,148.25],[11.362869,42.789747,149.25],[11.363304,42.790077,150],[11.36347,42.79027,150],[11.363561,42.790471,150],[11.363602,42.790618,150.25],[11.363561,42.790471,150],[11.36347,42.79027,150],[11.363304,42.790077,150],[11.362869,42.789747,149.25],[11.362482,42.789501,148.25],[11.362328,42.789403,148.25],[11.362241,42.789381,148.25],[11.362183,42.789269,147.75],[11.362043,42.789109,147.25],[11.362027,42.789053,147.25],[11.362027,42.788977,147],[11.36211,42.78879,146],[11.362098,42.788701,145.75],[11.362048,42.788633,145.5],[11.362032,42.788587,145.5],[11.362035,42.788529,145.5],[11.362099,42.788291,145.25],[11.362104,42.788226,145],[11.362104,42.78809,144.5],[11.362141,42.788045,144.25],[11.362139,42.788015,144.25],[11.36211,42.787957,144.5],[11.362017,42.787854,144.75],[11.361677,42.787413,143.5],[11.361529,42.787309,143],[11.36143,42.787272,142.5],[11.361241,42.787255,142.75],[11.361148,42.787311,143.5],[11.361035,42.78739,144],[11.360952,42.787484,144.25],[11.360872,42.787636,145],[11.36084,42.787722,145.5],[11.360789,42.787776,145.75],[11.360706,42.787797,145.5],[11.360652,42.787795,145.5],[11.360547,42.787764,144.75],[11.360437,42.787718,143.75],[11.360303,42.787685,143],[11.360148,42.787657,143],[11.360044,42.787656,143],[11.359997,42.787671,143],[11.35998,42.787616,143],[11.359945,42.787587,143],[11.359823,42.787531,143],[11.359532,42.787418,142],[11.359406,42.787363,141.5],[11.35932,42.787348,141.25],[11.359237,42.787348,141.25],[11.359083,42.787389,141.25],[11.358988,42.787371,141],[11.358835,42.787323,140.75],[11.358766,42.787252,140.5],[11.35868,42.787202,140],[11.358593,42.787187,140],[11.358423,42.787189,140],[11.358296,42.787161,140],[11.358215,42.787133,140.25],[11.358136,42.787117,140.25],[11.35787,42.787045,140],[11.357621,42.787018,139.75],[11.357514,42.786965,139],[11.357398,42.786842,138],[11.357333,42.78681,137.5],[11.357197,42.786771,137.25],[11.356874,42.786692,137],[11.356768,42.786648,136.75],[11.356578,42.786498,135.75],[11.356507,42.786413,135],[11.35648,42.786391,135],[11.356454,42.786384,135],[11.356422,42.786385,135],[11.356324,42.786411,135],[11.356017,42.78639,135],[11.355789,42.786399,135.25],[11.355859,42.786168,133.25],[11.355867,42.786051,133.5],[11.355821,42.785713,135.25],[11.355854,42.785441,135.5],[11.355916,42.785348,135.5],[11.355985,42.785179,137],[11.356052,42.785083,138.5],[11.356261,42.785004,143],[11.356344,42.785002,144.75],[11.356462,42.785024,147.5],[11.356656,42.785127,150],[11.356993,42.785307,150],[11.357136,42.785333,152.75],[11.357286,42.785331,156],[11.357455,42.785323,159.25],[11.357766,42.785213,165.5],[11.357988,42.785152,168.75],[11.358106,42.785138,169],[11.358257,42.785092,169],[11.358334,42.785026,170],[11.358369,42.784943,171.75],[11.358351,42.78487,174.25],[11.358246,42.784799,178],[11.358045,42.784764,181.75],[11.357814,42.78474,183.25],[11.357565,42.784693,183.75],[11.357471,42.784655,183.75],[11.357441,42.784606,184.25],[11.357441,42.784555,185.25],[11.357511,42.784482,187.25],[11.357586,42.784417,189],[11.357629,42.784341,190.5],[11.357683,42.784047,195.5],[11.357734,42.783894,198],[11.357854,42.783685,199.75],[11.357932,42.783471,202.75],[11.357948,42.783331,205.25],[11.357932,42.783195,206.5],[11.357865,42.783071,208],[11.357457,42.782469,215.25],[11.35724,42.782163,220.25],[11.357149,42.782002,221.75],[11.357093,42.781823,223.75],[11.357042,42.781728,224.75],[11.35698,42.781667,225.75],[11.356905,42.781632,226.5],[11.356631,42.78161,228],[11.356001,42.78184,233.75],[11.355714,42.781933,238.75],[11.355532,42.781957,241.75],[11.355405,42.781925,242.75],[11.35533,42.781864,244.5],[11.355266,42.781776,246.25],[11.35525,42.781667,248.25],[11.355271,42.781417,252.25],[11.355242,42.781317,253],[11.355218,42.781228,253.75],[11.35525,42.781173,254.75],[11.355357,42.781102,254.5],[11.355395,42.781047,254.75],[11.355438,42.78089,256.25],[11.355475,42.780697,259.25],[11.355448,42.780563,262.25],[11.355298,42.780264,269.75],[11.355325,42.780047,272.5],[11.355475,42.779594,280],[11.355534,42.779433,282.5],[11.355808,42.779094,284.75],[11.356017,42.778815,286.5],[11.356473,42.777929,296],[11.355931,42.777968,298],[11.35576,42.777937,298.25],[11.355336,42.777779,300],[11.355255,42.77776,300.5],[11.355073,42.77776,303.25],[11.355003,42.777775,304.75],[11.354638,42.777972,296.75],[11.354129,42.778177,291.75],[11.353276,42.778571,284.75],[11.352471,42.778775,274.75],[11.352342,42.778815,272.25],[11.352262,42.778807,271],[11.352208,42.778783,270.5],[11.352133,42.778736,269.5],[11.351479,42.777964,256.75],[11.351291,42.777767,253.5],[11.351237,42.777586,249.5],[11.351152,42.777476,246.25],[11.351039,42.777393,242.75],[11.350368,42.777082,234.5],[11.350191,42.777023,233],[11.350057,42.777019,232.5],[11.349934,42.777039,232.5],[11.349869,42.777082,232.75],[11.349676,42.77722,232],[11.34944,42.77748,229.5],[11.349199,42.777685,226],[11.349011,42.777681,222.75],[11.348791,42.777586,217.75],[11.348464,42.77735,209.25],[11.348298,42.777279,206.25],[11.348169,42.777267,204.25],[11.347584,42.77748,196.25],[11.347166,42.777653,189.5],[11.34694,42.7777,186],[11.346678,42.777634,181],[11.346484,42.7775,177.25],[11.346227,42.777342,172],[11.345927,42.777263,166.75],[11.345712,42.777322,164.5],[11.345508,42.776897,159],[11.345449,42.776574,153.25],[11.345514,42.775944,146.25],[11.345701,42.775424,143.25],[11.34598,42.774972,141.25],[11.346377,42.77455,142.5],[11.347316,42.773617,144.5],[11.348094,42.77303,150.5],[11.348469,42.772652,150.5],[11.348839,42.772337,150],[11.349333,42.772188,151],[11.3498,42.772007,150.25],[11.350304,42.772015,153.5],[11.350572,42.771751,151],[11.351178,42.771562,153.5],[11.351827,42.771546,155.25],[11.352873,42.771577,157],[11.353292,42.771341,153.25],[11.35338,42.770915,151.75],[11.353546,42.770591,151.25],[11.353535,42.77028,150],[11.353498,42.770029,149.25],[11.353616,42.76982,149],[11.35361,42.769614,149.25],[11.35381,42.769448,149.75],[11.354446,42.769269,152.5],[11.354649,42.769058,156.5],[11.354939,42.768951,159.5],[11.35529,42.769004,164],[11.355711,42.769022,171],[11.356832,42.768497,184.75],[11.357417,42.76852,190],[11.357884,42.768521,194.25],[11.358364,42.768427,196.5],[11.359177,42.768181,203],[11.359799,42.767907,211],[11.359971,42.767553,219],[11.359745,42.767324,222.5],[11.359804,42.767183,225.25],[11.359836,42.766985,229.5],[11.359756,42.766832,233.5],[11.359563,42.766671,236],[11.359386,42.766584,237.75],[11.359375,42.766387,245.25],[11.35923,42.766277,246.75],[11.359279,42.766076,252.75],[11.359617,42.76597,258.5],[11.359794,42.765899,261],[11.359976,42.765548,269.75],[11.360207,42.765308,270.5],[11.360614,42.765017,278.25],[11.360931,42.764772,281.5],[11.360813,42.764461,291.25],[11.360958,42.7643,295.25],[11.361322,42.764079,299],[11.361591,42.764036,298.75],[11.362004,42.763835,301.75],[11.362208,42.763646,302.25],[11.362342,42.763343,301.75],[11.362245,42.762953,303.75],[11.362256,42.762791,305.5],[11.362546,42.762717,313.5],[11.363114,42.762559,325.5],[11.363463,42.76252,329.25],[11.363672,42.763071,335],[11.363983,42.763244,336.5],[11.364375,42.763229,337.25],[11.364756,42.76315,336],[11.365029,42.762914,336.5],[11.36548,42.762768,337],[11.365877,42.762437,340.25],[11.366462,42.761992,344.75],[11.367073,42.761511,352.25],[11.368087,42.761433,351.25],[11.36864,42.761547,352],[11.368956,42.761401,355.25],[11.369095,42.761224,357.5],[11.36901,42.760637,362],[11.369364,42.760346,364.5],[11.369879,42.760098,370.5],[11.370404,42.759999,373.75],[11.371032,42.759932,379.5],[11.371365,42.759881,385],[11.371864,42.759566,395],[11.372475,42.759144,402],[11.373081,42.759066,406.25],[11.373789,42.758743,409.75],[11.374433,42.758384,414.75],[11.375195,42.757979,419.25],[11.375544,42.757888,424],[11.375855,42.757455,432.5],[11.37638,42.756923,436.5],[11.376756,42.756486,441],[11.377153,42.755875,452],[11.37755,42.755588,459.25],[11.378161,42.75426,479],[11.378269,42.753996,483.75],[11.378245,42.753819,484.5],[11.379468,42.753434,495.5],[11.380456,42.752847,502.5],[11.38095,42.75235,509.75],[11.380975,42.752095,512],[11.380787,42.751658,516.5],[11.380609,42.751067,520],[11.38066,42.750656,520.5],[11.380792,42.750457,521.5],[11.380996,42.750285,523.25],[11.381408,42.750117,529.5],[11.381683,42.749986,534],[11.381816,42.749765,536.25],[11.38176,42.748931,541.75],[11.381841,42.748726,542.75],[11.382727,42.748064,545.5],[11.383863,42.747708,546],[11.385585,42.747203,559.5],[11.386237,42.746811,569.75],[11.3867,42.74662,572.75],[11.386759,42.746581,573],[11.387408,42.746156,581],[11.38779,42.745636,590.25],[11.387994,42.74512,595.25],[11.388007,42.744953,596.75],[11.387892,42.744766,601.75],[11.387676,42.744738,599.5],[11.38737,42.744654,602.5],[11.38709,42.744513,604.25],[11.386848,42.744266,607.75],[11.386722,42.744023,610.75],[11.386757,42.743847,613.75],[11.3873,42.743368,622.75],[11.387589,42.742953,631],[11.38772,42.742517,638.5],[11.38788,42.742279,641.75],[11.388109,42.742078,642],[11.388332,42.741423,639],[11.388399,42.741974,640],[11.388588,42.742157,644.5]]}},{"type":"Feature","properties":{"time":"2025-04-10T16:45:15.470Z","sym":"right_slight"},"geometry":{"type":"Point","coordinates":[11.392408,42.736661,615.5]}},{"type":"Feature","properties":{"time":"2025-04-10T16:45:15.470Z","sym":"stay_right"},"geometry":{"type":"Point","coordinates":[11.389298,42.738829,632.75]}},{"type":"Feature","properties":{"time":"2025-04-10T16:45:15.470Z","sym":"left_slight"},"geometry":{"type":"Point","coordinates":[11.388332,42.741423,639]}},{"type":"Feature","properties":{"time":"2025-04-10T16:45:15.470Z","sym":"right"},"geometry":{"type":"Point","coordinates":[11.378245,42.753819,484.5]}},{"type":"Feature","properties":{"time":"2025-04-10T16:45:15.470Z","sym":"left_slight"},"geometry":{"type":"Point","coordinates":[11.36864,42.761547,352]}},{"type":"Feature","properties":{"time":"2025-04-10T16:45:15.470Z","sym":"right"},"geometry":{"type":"Point","coordinates":[11.345712,42.777322,164.5]}},{"type":"Feature","properties":{"time":"2025-04-10T16:45:15.470Z","sym":"right"},"geometry":{"type":"Point","coordinates":[11.356473,42.777929,296]}},{"type":"Feature","properties":{"time":"2025-04-10T16:45:15.470Z","sym":"right"},"geometry":{"type":"Point","coordinates":[11.355789,42.786399,135.25]}},{"type":"Feature","properties":{"time":"2025-04-10T16:45:15.470Z","sym":"right"},"geometry":{"type":"Point","coordinates":[11.359997,42.787671,143]}},{"type":"Feature","properties":{"time":"2025-04-10T16:45:15.470Z","sym":"right_slight"},"geometry":{"type":"Point","coordinates":[11.362241,42.789381,148.25]}},{"type":"Feature","properties":{"time":"2025-04-10T16:45:15.470Z","sym":"left_slight"},"geometry":{"type":"Point","coordinates":[11.362241,42.789381,148.25]}},{"type":"Feature","properties":{"time":"2025-04-10T16:45:15.470Z","sym":"right_slight"},"geometry":{"type":"Point","coordinates":[11.362141,42.788045,144.25]}},{"type":"Feature","properties":{"time":"2025-04-10T16:45:15.470Z","sym":"right_slight"},"geometry":{"type":"Point","coordinates":[11.361241,42.787255,142.75]}},{"type":"Feature","properties":{"time":"2025-04-10T16:45:15.470Z","sym":"left"},"geometry":{"type":"Point","coordinates":[11.359997,42.787671,143]}},{"type":"Feature","properties":{"time":"2025-04-10T16:45:15.470Z","sym":"left"},"geometry":{"type":"Point","coordinates":[11.355789,42.786399,135.25]}},{"type":"Feature","properties":{"time":"2025-04-10T16:45:15.470Z","sym":"right_sharp"},"geometry":{"type":"Point","coordinates":[11.356473,42.777929,296]}},{"type":"Feature","properties":{"time":"2025-04-10T16:45:15.470Z","sym":"left"},"geometry":{"type":"Point","coordinates":[11.345712,42.777322,164.5]}},{"type":"Feature","properties":{"time":"2025-04-10T16:45:15.470Z","sym":"right_slight"},"geometry":{"type":"Point","coordinates":[11.36864,42.761547,352]}},{"type":"Feature","properties":{"time":"2025-04-10T16:45:15.470Z","sym":"left"},"geometry":{"type":"Point","coordinates":[11.378245,42.753819,484.5]}},{"type":"Feature","properties":{"time":"2025-04-10T16:45:15.470Z","sym":"u-turn_left"},"geometry":{"type":"Point","coordinates":[11.388332,42.741423,639]}}]}